COMMENT,ORIGINATOR,NORAD_CAT_ID,OBJECT_NAME,OBJECT_TYPE,CLASSIFICATION_TYPE,INTLDES,EPOCH,EPOCH_MICROSECONDS,MEAN_MOTION,ECCENTRICITY,INCLINATION,RA_OF_ASC_NODE,ARG_OF_PERICENTER,MEAN_ANOMALY,EPHEMERIS_TYPE,ELEMENT_SET_NO,REV_AT_EPOCH,BSTAR,MEAN_MOTION_DOT,MEAN_MOTION_DDOT,FILE,TLE_LINE0,TLE_LINE1,TLE_LINE2,OBJECT_ID,OBJECT_NUMBER,SEMIMAJOR_AXIS,PERIOD,APOGEE,PERIGEE
"GENERATED VIA SPACETRACK.ORG API","JSPOC","959","OPS 6582 (TRANSIT 5E-5)","PAYLOAD","U","64083C","2016-01-11 00:51:42","813216","13.61422724","0.0042222","89.9896","187.8092","24.2177","85.7626","0","999","53212","0.00012739","1.07e-06","0","1978758","0 OPS 6582 (TRANSIT 5E-5)","1 00959U 64083C   16011.03591219  .00000107  00000-0  12739-3 0  9996","2 00959  89.9896 187.8092 0042222  24.2177  85.7626 13.61422724532123","1964-083C","959","7408.663","105.771","1061.808","999.247"
"GENERATED VIA SPACETRACK.ORG API","JSPOC","10455","MOLNIYA 3-8","PAYLOAD","U","77105A","2016-01-11 00:51:42","567840","2.00604738","0.7425431","62.6157","346.3823","262.0934","16.3345","0","999","28000","0.0013017","1.552e-05","0","1979502","0 MOLNIYA 3-8","1 10455U 77105A   16011.03590935 +.00001552 +00000-0 +13017-2 0  9995","2 10455 062.6157 346.3823 7425431 262.0934 016.3345 02.00604738280007","1977-105A","10455","26556.716","717.829","39898.088","459.075"
"GENERATED VIA SPACETRACK.ORG API","JSPOC","32951","GALAXY 18","PAYLOAD","U","08024A","2016-01-11 00:51:44","803872","1.00269451","0.000296","0.0153","358.6378","293.8549","67.476","0","999","2788","0","2.7e-07","0","1979123","0 GALAXY 18","1 32951U 08024A   16011.03593523  .00000027  00000-0  00000+0 0  9991","2 32951   0.0153 358.6378 0002960 293.8549  67.4760  1.00269451 27881","2008-024A","32951","42165.386","1436.130","35799.732","35774.770"
"GENERATED VIA SPACETRACK.ORG API","JSPOC","14147","COSMOS 1470","PAYLOAD","U","83061A","2016-01-11 00:52:16","145472","15.09795429","0.0012904","82.4863","192.3867","250.6938","109.2896","0","999","52585","0.00011036","1.814e-05","0","1978796","0 COSMOS 1470","1 14147U 83061A   16011.03629798  .00001814  00000-0  11036-3 0  9996","2 14147  82.4863 192.3867 0012904 250.6938 109.2896 15.09795429525856","1983-061A","14147","6914.961","95.377","545.749","527.903"
"GENERATED VIA SPACETRACK.ORG API","JSPOC","27610","SL-24 R/B","ROCKET BODY","U","02058F","2016-01-11 00:52:34","569408","14.28023458","0.0304531","64.556","185.8442","336.4863","159.7791","0","999","68069","1.1088e-05","-8.7e-07","0","1978839","0 SL-24 R/B","1 27610U 02058F   16011.03651122 -.00000087  00000-0  11088-4 0  9998","2 27610  64.5560 185.8442 0304531 336.4863 159.7791 14.28023458680690","2002-058F","27610","7176.482","100.838","1016.893","579.801"
"GENERATED VIA SPACETRACK.ORG API","JSPOC","8331","ATLAS CENTAUR R/B","ROCKET BODY","U","75091B","2016-01-11 00:52:39","83808","2.21855378","0.7220416","21.9546","66.8538","307.2412","6.6604","0","999","32420","-6.3877e-06","-3.4e-07","0","1979502","0 ATLAS CENTAUR R/B","1  8331U 75091B   16011.03656347 -.00000034 +00000-0 -63877-5 0  9995","2  8331 021.9546 066.8538 7220416 307.2412 006.6604 02.21855378324205","1975-091B","8331","24832.581","649.071","36384.603","524.289"
"GENERATED VIA SPACETRACK.ORG API","JSPOC","32294","SKYNET 5B","PAYLOAD","U","07056B","2016-01-11 00:53:08","719872","1.00271415","0.0004097","0.0642","11.3998","284.508","212.4021","0","999","2999","0","1.44e-06","0","1978793","0 SKYNET 5B","1 32294U 07056B   16011.03690648  .00000144  00000-0  00000+0 0  9991","2 32294   0.0642  11.3998 0004097 284.5080 212.4021  1.00271415 29994","2007-056B","32294","42164.835","1436.102","35803.975","35769.425"
"GENERATED VIA SPACETRACK.ORG API","JSPOC","11050","COSMOS 1041","PAYLOAD","U","78091H","2016-01-11 00:53:46","741056","12.43277113","0.0019881","74.033","223.7079","190.9723","281.9319","0","999","69175","0.00013364","3e-08","0","1978785","0 COSMOS 1041","1 11050U 78091H   16011.03734654  .00000003  00000-0  13364-3 0  9996","2 11050  74.0330 223.7079 0019881 190.9723 281.9319 12.43277113691756","1978-091H","11050","7870.878","115.822","1508.391","1477.095"
"GENERATED VIA SPACETRACK.ORG API","JSPOC","17706","AGILA 1 (PALAPA B2P)","PAYLOAD","U","87029A","2016-01-11 00:54:17","93376","0.99902693","0.0004048","14.6537","22.3877","260.7574","99.2379","0","999","9335","0","-8e-07","0","1978942","0 AGILA 1 (PALAPA B2P)","1 17706U 87029A   16011.03769784 -.00000080  00000-0  00000+0 0  9998","2 17706  14.6537  22.3877 0004048 260.7574  99.2379  0.99902693 93351","1987-029A","17706","42268.520","1441.402","35907.495","35873.274"
"GENERATED VIA SPACETRACK.ORG API","JSPOC","29479","HINODE (SOLAR B)","PAYLOAD","U","06041A","2016-01-11 00:54:45","46368","14.64610526","0.0018393","98.1539","13.7474","65.2229","295.0885","0","999","49681","5.0175e-05","2.19e-06","0","1978825","0 HINODE (SOLAR B)","1 29479U 06041A   16011.03802137  .00000219  00000-0  50175-4 0  9999","2 29479  98.1539  13.7474 0018393  65.2229 295.0885 14.64610526496814","2006-041A","29479","7056.463","98.319","691.307","665.349"
"GENERATED VIA SPACETRACK.ORG API","JSPOC","25053","SL-12 R/B(AUX MOTOR)","ROCKET BODY","U","97070E","2016-01-11 00:55:36","297120","2.41728455","0.6839988","45.9754","277.5165","19.811","357.2466","0","999","15977","-0.00068033","-6.4e-07","0","1979502","0 SL-12 R/B(AUX MOTOR)","1 25053U 97070E   16011.03861455 -.00000064 +00000-0 -68033-3 0  9994","2 25053 045.9754 277.5165 6839988 019.8110 357.2466 02.41728455159775","1997-070E","25053","23452.185","595.709","33115.317","1032.783"
"GENERATED VIA SPACETRACK.ORG API","JSPOC","38354","YAOGAN 15","PAYLOAD","U","12029A","2016-01-11 00:56:29","949792","13.15688041","0.0007486","100.6718","136.5666","152.8105","207.3398","0","999","17375","1.8714e-05","-3.9e-07","0","1978775","0 YAOGAN 15","1 38354U 12029A   16011.03923553 -.00000039  00000-0  18714-4 0  9994","2 38354 100.6718 136.5666 0007486 152.8105 207.3398 13.15688041173750","2012-029A","38354","7579.372","109.448","1206.910","1195.563"
"GENERATED VIA SPACETRACK.ORG API","JSPOC","6319","COSMOS 539","PAYLOAD","U","72102A","2016-01-11 00:57:03","115296","12.75379077","0.0024245","74.0147","179.6503","334.4501","155.0596","0","999","461","-7.1398e-05","-3.2e-07","0","1978754","0 COSMOS 539","1 06319U 72102A   16011.03961939 -.00000032  00000-0 -71398-4 0  9999","2 06319  74.0147 179.6503 0024245 334.4501 155.0596 12.75379077  4612","1972-102A","6319","7738.242","112.907","1378.868","1341.345"
"GENERATED VIA SPACETRACK.ORG API","JSPOC","40061","GONETS M 08 (M18)","PAYLOAD","U","14036A","2016-01-11 00:58:04","379808","12.42885152","0.0029364","82.5099","153.9937","179.6358","180.4748","0","999","6913","0","1e-07","0","1978837","0 GONETS M 08 (M18)","1 40061U 14036A   16011.04032847  .00000010  00000-0  00000+0 0  9992","2 40061  82.5099 153.9937 0029364 179.6358 180.4748 12.42885152 69135","2014-036A","40061","7872.533","115.859","1517.515","1471.281"
"GENERATED VIA SPACETRACK.ORG API","JSPOC","10677","SL-8 R/B","ROCKET BODY","U","78019B","2016-01-11 00:58:06","136320","14.3993287","0.0014768","74.036","187.905","27.2021","332.9904","0","999","98719","6.0494e-05","1.64e-06","0","1978774","0 SL-8 R/B","1 10677U 78019B   16011.04034880  .00000164  00000-0  60494-4 0  9990","2 10677  74.0360 187.9050 0014768  27.2021 332.9904 14.39932870987193","1978-019B","10677","7136.857","100.004","769.261","748.182"
"GENERATED VIA SPACETRACK.ORG API","JSPOC","5549","COSMOS 446","PAYLOAD","U","71086C","2016-01-11 00:58:12","230976","12.54404204","0.0082935","74.0257","183.9433","113.2191","23.6438","0","999","2618","-7.6077e-05","-2.8e-07","0","1978805","0 COSMOS 446","1 05549U 71086C   16011.04041934 -.00000028  00000-0 -76077-4 0  9992","2 05549  74.0257 183.9433 0082935 113.2191  23.6438 12.54404204 26185","1971-086C","5549","7824.264","114.795","1511.019","1381.238"
"GENERATED VIA SPACETRACK.ORG API","JSPOC","39434","DOVE 4","PAYLOAD","U","13066U","2016-01-11 00:58:28","44768","14.9874836","0.0027089","97.7238","86.8171","133.9541","226.3932","0","999","11636","0.00044516","5.34e-05","0","1978814","0 DOVE 4","1 39434U 13066U   16011.04060237  .00005340  00000-0  44516-3 0  9995","2 39434  97.7238  86.8171 0027089 133.9541 226.3932 14.98748360116368","2013-066U","39434","6948.899","96.080","589.588","551.940"
"GENERATED VIA SPACETRACK.ORG API","JSPOC","37931","SHIYUAN 4 (SY-4)","PAYLOAD","U","11068B","2016-01-11 00:58:50","423232","14.29838805","0.0014309","98.4841","5.6033","136.1855","224.0464","0","999","21618","3.2103e-05","4e-07","0","1978863","0 SHIYUAN 4 (SY-4)","1 37931U 11068B   16011.04086138  .00000040  00000-0  32103-4 0  9995","2 37931  98.4841   5.6033 0014309 136.1855 224.0464 14.29838805216180","2011-068B","37931","7170.406","100.710","802.531","782.011"
"GENERATED VIA SPACETRACK.ORG API","JSPOC","17066","COSMOS 1791","PAYLOAD","U","86086A","2016-01-11 00:59:02","967648","13.75721896","0.0042203","82.9455","206.0574","84.7893","26.1739","0","999","46427","2.1678e-05","3.7e-07","0","1978792","0 COSMOS 1791","1 17066U 86086A   16011.04100657  .00000037  00000-0  21678-4 0  9998","2 17066  82.9455 206.0574 0042203  84.7893  26.1739 13.75721896464279","1986-086A","17066","7357.236","104.672","1010.151","948.052"
"GENERATED VIA SPACETRACK.ORG API","JSPOC","28909","GONETS D1M 1","PAYLOAD","U","05048B","2016-01-11 00:59:12","494112","12.55149688","0.0007333","82.4663","225.0662","23.7591","336.383","0","999","46066","0.00030681","6e-07","0","1978815","0 GONETS D1M 1","1 28909U 05048B   16011.04111683  .00000060  00000-0  30681-3 0  9995","2 28909  82.4663 225.0662 0007333  23.7591 336.3830 12.55149688460662","2005-048B","28909","7821.165","114.727","1448.766","1437.295"
